{"type": "FeatureCollection", "features": [{"type": "Feature", "properties": {"norad_id": 50032, "name": "COSMOS 1408 DEB", "group": "cosmos-1408-debris", "lat": -53.74124854681726, "lon": -119.94468455247848, "alt_km": 430.2815055936371, "timestamp": "2025-12-21T05:44:51.856324+00:00", "meta": {"OBJECT_NAME": "COSMOS 1408 DEB", "OBJECT_ID": "1982-092RU", "EPOCH": "2025-12-20T20:58:10.164000", "MEAN_MOTION": 15.45769554, "ECCENTRICITY": 0.00160414, "INCLINATION": 82.5636, "RA_OF_ASC_NODE": 50.1722, "ARG_OF_PERICENTER": 178.2003, "MEAN_ANOMALY": 181.9307, "EPHEMERIS_TYPE": 0, "CLASSIFICATION_TYPE": "U", "NORAD_CAT_ID": 50032, "ELEMENT_SET_NO": 999, "REV_AT_EPOCH": 22729, "BSTAR": 7.8538205e-05, "MEAN_MOTION_DOT": 3.86e-05, "MEAN_MOTION_DDOT": 0}, "tle": {"line1": "1 50032U 82092RU  25354.87372875  .00003860  00000+0  78538-4 0  9998", "line2": "2 50032  82.5636  50.1722 0016041 178.2003 181.9307 15.45769554227294"}}, "geometry": {"type": "Point", "coordinates": [-119.94468455247848, -53.74124854681726]}}, {"type": "Feature", "properties": {"norad_id": 50058, "name": "COSMOS 1408 DEB", "group": "cosmos-1408-debris", "lat": -73.60852050037732, "lon": 34.27036312346514, "alt_km": 390.7420001626415, "timestamp": "2025-12-21T05:44:51.856356+00:00", "meta": {"OBJECT_NAME": "COSMOS 1408 DEB", "OBJECT_ID": "1982-092SW", "EPOCH": "2025-12-20T17:47:22.881120", "MEAN_MOTION": 15.6455551, "ECCENTRICITY": 0.00161893, "INCLINATION": 82.6127, "RA_OF_ASC_NODE": 60.9651, "ARG_OF_PERICENTER": 71.6171, "MEAN_ANOMALY": 288.6847, "EPHEMERIS_TYPE": 0, "CLASSIFICATION_TYPE": "U", "NORAD_CAT_ID": 50058, "ELEMENT_SET_NO": 999, "REV_AT_EPOCH": 22929, "BSTAR": 0.00023339016, "MEAN_MOTION_DOT": 0.000227, "MEAN_MOTION_DDOT": 0}, "tle": {"line1": "1 50058U 82092SW  25354.74123705  .00022700  00000+0  23339-3 0  9990", "line2": "2 50058  82.6127  60.9651 0016189  71.6171 288.6847 15.64555510229295"}}, "geometry": {"type": "Point", "coordinates": [34.27036312346514, -73.60852050037732]}}, {"type": "Feature", "properties": {"norad_id": 50404, "name": "COSMOS 1408 DEB", "group": "cosmos-1408-debris", "lat": -47.966765244069656, "lon": -162.4167937182141, "alt_km": 618.5118664953452, "timestamp": "2025-12-21T05:44:51.856370+00:00", "meta": {"OBJECT_NAME": "COSMOS 1408 DEB", "OBJECT_ID": "1982-092ADS", "EPOCH": "2025-12-20T20:27:26.540928", "MEAN_MOTION": 15.14964314, "ECCENTRICITY": 0.0168837, "INCLINATION": 82.2054, "RA_OF_ASC_NODE": 206.7205, "ARG_OF_PERICENTER": 171.102, "MEAN_ANOMALY": 189.3275, "EPHEMERIS_TYPE": 0, "CLASSIFICATION_TYPE": "U", "NORAD_CAT_ID": 50404, "ELEMENT_SET_NO": 999, "REV_AT_EPOCH": 21316, "BSTAR": 0.0020820142, "MEAN_MOTION_DOT": 0.00056108, "MEAN_MOTION_DDOT": 0}, "tle": {"line1": "1 50404U 82092ADS 25354.85239052  .00056108  00000+0  20820-2 0  9990", "line2": "2 50404  82.2054 206.7205 0168837 171.1020 189.3275 15.14964314213169"}}, "geometry": {"type": "Point", "coordinates": [-162.4167937182141, -47.966765244069656]}}, {"type": "Feature", "properties": {"norad_id": 50621, "name": "COSMOS 1408 DEB", "group": "cosmos-1408-debris", "lat": 70.97907307559315, "lon": 87.57526531647721, "alt_km": 376.41740606971416, "timestamp": "2025-12-21T05:44:51.856381+00:00", "meta": {"OBJECT_NAME": "COSMOS 1408 DEB", "OBJECT_ID": "1982-092ALR", "EPOCH": "2025-12-20T15:33:22.898016", "MEAN_MOTION": 15.57043156, "ECCENTRICITY": 0.00290671, "INCLINATION": 82.5698, "RA_OF_ASC_NODE": 65.946, "ARG_OF_PERICENTER": 123.8285, "MEAN_ANOMALY": 236.5744, "EPHEMERIS_TYPE": 0, "CLASSIFICATION_TYPE": "U", "NORAD_CAT_ID": 50621, "ELEMENT_SET_NO": 999, "REV_AT_EPOCH": 22373, "BSTAR": 0.00024864117, "MEAN_MOTION_DOT": 0.00018378, "MEAN_MOTION_DDOT": 0}, "tle": {"line1": "1 50621U 82092ALR 25354.64818169  .00018378  00000+0  24864-3 0  9990", "line2": "2 50621  82.5698  65.9460 0029067 123.8285 236.5744 15.57043156223732"}}, "geometry": {"type": "Point", "coordinates": [87.57526531647721, 70.97907307559315]}}]}